{"type":"FeatureCollection", "features": [
{"type":"Feature","geometry":{"type":"Point","coordinates":[-88.217,42.909,0]},"properties":{"name":"Vernon","description":"Tower site located in Vernon, Wisconsin. Features include...","link":"sites/vernon.html","styleUrl":"#icon-1899-0288D1-nodesc","icon-scale":1,"icon-offset":[32,64],"icon-offset-units":["pixels","insetPixels"],"icon":"images/icon-1.png"}},
{"type":"Feature","geometry":{"type":"Point","coordinates":[-90.1491,46.2502,0]},"properties":{"name":"Pine Lake","description":"Tower site located in Pine Lake, Wisconsin. Strategic location for regional coverage.","link":"sites/pine-lake.html","styleUrl":"#icon-1899-0288D1-nodesc","icon-scale":1,"icon-offset":[32,64],"icon-offset-units":["pixels","insetPixels"],"icon":"images/icon-1.png"}},
{"type":"Feature","geometry":{"type":"Point","coordinates":[-111.6381,32.8346,1477]},"properties":{"name":"Casa Grande","description":"Tower site located in Casa Grande, Arizona. Elevation: 1477 feet.","link":"sites/casa-grande.html","styleUrl":"#icon-1899-0288D1-nodesc","icon-scale":1,"icon-offset":[32,64],"icon-offset-units":["pixels","insetPixels"],"icon":"images/icon-1.png"}},
{"type":"Feature","geometry":{"type":"Point","coordinates":[-89.6539,43.4305,1530]},"properties":{"name":"Baraboo","description":"Tower site located in Baraboo, Wisconsin. Elevation: 1530 feet.","link":"sites/baraboo.html","styleUrl":"#icon-1899-0288D1-nodesc","icon-scale":1,"icon-offset":[32,64],"icon-offset-units":["pixels","insetPixels"],"icon":"images/icon-1.png"}},
{"type":"Feature","geometry":{"type":"Point","coordinates":[-90.583,44.1154,1351]},"properties":{"name":"Paradise","description":"Tower site located in Paradise, Wisconsin. Elevation: 1351 feet.","link":"sites/paradise.html","styleUrl":"#icon-1899-0288D1-nodesc","icon-scale":1,"icon-offset":[32,64],"icon-offset-units":["pixels","insetPixels"],"icon":"images/icon-1.png"}},
{"type":"Feature","geometry":{"type":"Point","coordinates":[-91.0032,44.3094,1200]},"properties":{"name":"Rose Hill","description":"Tower site located in Rose Hill, Wisconsin. Elevation: 1200 feet.","link":"sites/rose-hill.html","styleUrl":"#icon-1899-0288D1-nodesc","icon-scale":1,"icon-offset":[32,64],"icon-offset-units":["pixels","insetPixels"],"icon":"images/icon-1.png"}},
{"type":"Feature","geometry":{"type":"Point","coordinates":[-89.7831,44.4813,1120]},"properties":{"name":"Rudolph","description":"Tower site located in Rudolph, Wisconsin. Elevation: 1120 feet.","link":"sites/rudolph.html","styleUrl":"#icon-1899-0288D1-nodesc","icon-scale":1,"icon-offset":[32,64],"icon-offset-units":["pixels","insetPixels"],"icon":"images/icon-1.png"}},
{"type":"Feature","geometry":{"type":"Point","coordinates":[-91.3803,44.5297,1100]},"properties":{"name":"Strum","description":"Tower site located in Strum, Wisconsin. Elevation: 1100 feet.","link":"sites/strum.html","styleUrl":"#icon-1899-0288D1-nodesc","icon-scale":1,"icon-offset":[32,64],"icon-offset-units":["pixels","insetPixels"],"icon":"images/icon-1.png"}},
{"type":"Feature","geometry":{"type":"Point","coordinates":[-89.1092,43.3155,1006]},"properties":{"name":"Columbus","description":"Tower site located in Columbus, Wisconsin. Elevation: 1006 feet.","link":"sites/columbus.html","styleUrl":"#icon-1899-0288D1-nodesc","icon-scale":1,"icon-offset":[32,64],"icon-offset-units":["pixels","insetPixels"],"icon":"images/icon-1.png"}},
{"type":"Feature","geometry":{"type":"Point","coordinates":[-88.9055,43.5467,915]},"properties":{"name":"Fox Lake 2","description":"Tower site located in Fox Lake, Wisconsin. Elevation: 915 feet.","link":"sites/fox-lake-2.html","styleUrl":"#icon-1899-0288D1-nodesc","icon-scale":1,"icon-offset":[32,64],"icon-offset-units":["pixels","insetPixels"],"icon":"images/icon-1.png"}},
{"type":"Feature","geometry":{"type":"Point","coordinates":[-84.526,33.7606,918]},"properties":{"name":"Mableton","description":"Tower site located in Mableton, Georgia. Elevation: 918 feet.","link":"sites/mableton.html","styleUrl":"#icon-1899-0288D1-nodesc","icon-scale":1,"icon-offset":[32,64],"icon-offset-units":["pixels","insetPixels"],"icon":"images/icon-1.png"}},
{"type":"Feature","geometry":{"type":"Point","coordinates":[-88.292,40.4433,802]},"properties":{"name":"Elliott","description":"Tower site located in Elliott, Illinois. Elevation: 802 feet.","link":"sites/elliott.html","styleUrl":"#icon-1899-0288D1-nodesc","icon-scale":1,"icon-offset":[32,64],"icon-offset-units":["pixels","insetPixels"],"icon":"images/icon-1.png"}},
{"type":"Feature","geometry":{"type":"Point","coordinates":[-88.097,41.9061,786]},"properties":{"name":"Glendale Heights","description":"Tower site located in Glendale Heights, Illinois. Elevation: 786 feet.","link":"sites/glendale-heights.html","styleUrl":"#icon-1899-0288D1-nodesc","icon-scale":1,"icon-offset":[32,64],"icon-offset-units":["pixels","insetPixels"],"icon":"images/icon-1.png"}},
{"type":"Feature","geometry":{"type":"Point","coordinates":[-88.0618,42.2382,863]},"properties":{"name":"Hawthorn Woods","description":"Tower site located in Hawthorn Woods, Illinois. Elevation: 863 feet.","link":"sites/hawthorn-woods.html","styleUrl":"#icon-1899-0288D1-nodesc","icon-scale":1,"icon-offset":[32,64],"icon-offset-units":["pixels","insetPixels"],"icon":"images/icon-1.png"}},
{"type":"Feature","geometry":{"type":"Point","coordinates":[-88.9735,39.6982,707]},"properties":{"name":"Macon","description":"Tower site located in Macon, Illinois. Elevation: 707 feet.","link":"sites/macon.html","styleUrl":"#icon-1899-0288D1-nodesc","icon-scale":1,"icon-offset":[32,64],"icon-offset-units":["pixels","insetPixels"],"icon":"images/icon-1.png"}},
{"type":"Feature","geometry":{"type":"Point","coordinates":[-88.1793,40.488,790]},"properties":{"name":"Paxton","description":"Tower site located in Paxton, Illinois. Elevation: 790 feet.","link":"sites/paxton.html","styleUrl":"#icon-1899-0288D1-nodesc","icon-scale":1,"icon-offset":[32,64],"icon-offset-units":["pixels","insetPixels"],"icon":"images/icon-1.png"}},
{"type":"Feature","geometry":{"type":"Point","coordinates":[-110.6644,46.1226,5914]},"properties":{"name":"Wilsall","description":"Tower site located in Wilsall, Montana. Elevation: 5914 feet.","link":"sites/wilsall.html","styleUrl":"#icon-1899-0288D1-nodesc","icon-scale":1,"icon-offset":[32,64],"icon-offset-units":["pixels","insetPixels"],"icon":"images/icon-1.png"}},
{"type":"Feature","geometry":{"type":"Point","coordinates":[-119.7089,39.2595,7388]},"properties":{"name":"McClellan Peak","description":"Tower site located at McClellan Peak, Nevada. Elevation: 7388 feet.","link":"sites/mcclellan-peak.html","styleUrl":"#icon-1899-0288D1-nodesc","icon-scale":1,"icon-offset":[32,64],"icon-offset-units":["pixels","insetPixels"],"icon":"images/icon-1.png"}},
{"type":"Feature","geometry":{"type":"Point","coordinates":[-112.4796,41.2563,5250]},"properties":{"name":"Lead Mtn","description":"Tower site located at Lead Mountain, Utah. Elevation: 5250 feet.","link":"sites/lead-mtn.html","styleUrl":"#icon-1899-0288D1-nodesc","icon-scale":1,"icon-offset":[32,64],"icon-offset-units":["pixels","insetPixels"],"icon":"images/icon-1.png"}},
{"type":"Feature","geometry":{"type":"Point","coordinates":[-89.5689,44.021,1194]},"properties":{"name":"Coloma","description":"Tower site located in Coloma, Wisconsin. Elevation: 1194 feet.","link":"sites/coloma.html","styleUrl":"#icon-1899-0288D1-nodesc","icon-scale":1,"icon-offset":[32,64],"icon-offset-units":["pixels","insetPixels"],"icon":"images/icon-1.png"}},
{"type":"Feature","geometry":{"type":"Point","coordinates":[-89.5247,43.4805,1233]},"properties":{"name":"Portage","description":"Tower site located in Portage, Wisconsin. Elevation: 1233 feet.","link":"sites/portage.html","styleUrl":"#icon-1899-0288D1-nodesc","icon-scale":1,"icon-offset":[32,64],"icon-offset-units":["pixels","insetPixels"],"icon":"images/icon-1.png"}},
{"type":"Feature","geometry":{"type":"Point","coordinates":[-88.7378,42.5053,977]},"properties":{"name":"Sharon","description":"Tower site located in Sharon, Wisconsin. Elevation: 977 feet.","link":"sites/sharon.html","styleUrl":"#icon-1899-0288D1-nodesc","icon-scale":1,"icon-offset":[32,64],"icon-offset-units":["pixels","insetPixels"],"icon":"images/icon-1.png"}},
{"type":"Feature","geometry":{"type":"Point","coordinates":[-105.7162,41.8141,7160]},"properties":{"name":"McGill Lakes","description":"Tower site located at McGill Lakes, Wyoming. Elevation: 7160 feet.","link":"sites/mcgill-lakes.html","styleUrl":"#icon-1899-0288D1-nodesc","icon-scale":1,"icon-offset":[32,64],"icon-offset-units":["pixels","insetPixels"],"icon":"images/icon-1.png"}},
{"type":"Feature","geometry":{"type":"Point","coordinates":[-93.241,41.8797,1064]},"properties":{"name":"Collins","description":"Tower site located in Collins, Iowa. Elevation: 1064 feet.","link":"sites/collins.html","styleUrl":"#icon-1899-0288D1-nodesc","icon-scale":1,"icon-offset":[32,64],"icon-offset-units":["pixels","insetPixels"],"icon":"images/icon-1.png"}},
{"type":"Feature","geometry":{"type":"Point","coordinates":[-88.5516,42.4926,1178]},"properties":{"name":"Alden","description":"Tower site located in Alden, Wisconsin. Elevation: 1178 feet.","link":"sites/alden.html","styleUrl":"#icon-1899-0288D1-nodesc","icon-scale":1,"icon-offset":[32,64],"icon-offset-units":["pixels","insetPixels"],"icon":"images/icon-1.png"}},
{"type":"Feature","geometry":{"type":"Point","coordinates":[-90.3407,41.2386,795]},"properties":{"name":"Alpha","description":"Tower site located in Alpha, Illinois. Elevation: 795 feet.","link":"sites/alpha.html","styleUrl":"#icon-1899-0288D1-nodesc","icon-scale":1,"icon-offset":[32,64],"icon-offset-units":["pixels","insetPixels"],"icon":"images/icon-1.png"}},
{"type":"Feature","geometry":{"type":"Point","coordinates":[-88.1868,41.2325,590]},"properties":{"name":"Braidwood","description":"Tower site located in Braidwood, Illinois. Elevation: 590 feet.","link":"sites/braidwood.html","styleUrl":"#icon-1899-0288D1-nodesc","icon-scale":1,"icon-offset":[32,64],"icon-offset-units":["pixels","insetPixels"],"icon":"images/icon-1.png"}},
{"type":"Feature","geometry":{"type":"Point","coordinates":[-89.6446,41.3179,841]},"properties":{"name":"Buda","description":"Tower site located in Buda, Illinois. Elevation: 841 feet.","link":"sites/buda.html","styleUrl":"#icon-1899-0288D1-nodesc","icon-scale":1,"icon-offset":[32,64],"icon-offset-units":["pixels","insetPixels"],"icon":"images/icon-1.png"}},
{"type":"Feature","geometry":{"type":"Point","coordinates":[-88.4807,42.4114,1002]},"properties":{"name":"Hartland","description":"Tower site located in Hartland, Wisconsin. Elevation: 1002 feet.","link":"sites/hartland.html","styleUrl":"#icon-1899-0288D1-nodesc","icon-scale":1,"icon-offset":[32,64],"icon-offset-units":["pixels","insetPixels"],"icon":"images/icon-1.png"}},
{"type":"Feature","geometry":{"type":"Point","coordinates":[-88.9231,41.8445,992]},"properties":{"name":"Lee","description":"Tower site located in Lee, Illinois. Elevation: 992 feet.","link":"sites/lee.html","styleUrl":"#icon-1899-0288D1-nodesc","icon-scale":1,"icon-offset":[32,64],"icon-offset-units":["pixels","insetPixels"],"icon":"images/icon-1.png"}},
{"type":"Feature","geometry":{"type":"Point","coordinates":[-87.9735,41.2553,670]},"properties":{"name":"Manteno","description":"Tower site located in Manteno, Illinois. Elevation: 670 feet.","link":"sites/manteno.html","styleUrl":"#icon-1899-0288D1-nodesc","icon-scale":1,"icon-offset":[32,64],"icon-offset-units":["pixels","insetPixels"],"icon":"images/icon-1.png"}},
{"type":"Feature","geometry":{"type":"Point","coordinates":[-89.1557,41.4976,719]},"properties":{"name":"Mendota","description":"Tower site located in Mendota, Illinois. Elevation: 719 feet.","link":"sites/mendota.html","styleUrl":"#icon-1899-0288D1-nodesc","icon-scale":1,"icon-offset":[32,64],"icon-offset-units":["pixels","insetPixels"],"icon":"images/icon-1.png"}},
{"type":"Feature","geometry":{"type":"Point","coordinates":[-88.5292,41.5514,740]},"properties":{"name":"Newark","description":"Tower site located in Newark, Illinois. Elevation: 740 feet.","link":"sites/newark.html","styleUrl":"#icon-1899-0288D1-nodesc","icon-scale":1,"icon-offset":[32,64],"icon-offset-units":["pixels","insetPixels"],"icon":"images/icon-1.png"}},
{"type":"Feature","geometry":{"type":"Point","coordinates":[-90.4178,41.1961,796]},"properties":{"name":"New Windsor","description":"Tower site located in New Windsor, Illinois. Elevation: 796 feet.","link":"sites/new-windsor.html","styleUrl":"#icon-1899-0288D1-nodesc","icon-scale":1,"icon-offset":[32,64],"icon-offset-units":["pixels","insetPixels"],"icon":"images/icon-1.png"}},
{"type":"Feature","geometry":{"type":"Point","coordinates":[-89.5148,41.3459,643]},"properties":{"name":"Princeton","description":"Tower site located in Princeton, Illinois. Elevation: 643 feet.","link":"sites/princeton.html","styleUrl":"#icon-1899-0288D1-nodesc","icon-scale":1,"icon-offset":[32,64],"icon-offset-units":["pixels","insetPixels"],"icon":"images/icon-1.png"}},
{"type":"Feature","geometry":{"type":"Point","coordinates":[-89.2757,41.659,928]},"properties":{"name":"Sublette","description":"Tower site located in Sublette, Illinois. Elevation: 928 feet.","link":"sites/sublette.html","styleUrl":"#icon-1899-0288D1-nodesc","icon-scale":1,"icon-offset":[32,64],"icon-offset-units":["pixels","insetPixels"],"icon":"images/icon-1.png"}},
{"type":"Feature","geometry":{"type":"Point","coordinates":[-89.8367,41.6098,685]},"properties":{"name":"Tampico","description":"Tower site located in Tampico, Illinois. Elevation: 685 feet.","link":"sites/tampico.html","styleUrl":"#icon-1899-0288D1-nodesc","icon-scale":1,"icon-offset":[32,64],"icon-offset-units":["pixels","insetPixels"],"icon":"images/icon-1.png"}},
{"type":"Feature","geometry":{"type":"Point","coordinates":[-88.4906,41.1853,628]},"properties":{"name":"Verona","description":"Tower site located in Verona, Illinois. Elevation: 628 feet.","link":"sites/verona.html","styleUrl":"#icon-1899-0288D1-nodesc","icon-scale":1,"icon-offset":[32,64],"icon-offset-units":["pixels","insetPixels"],"icon":"images/icon-1.png"}},
{"type":"Feature","geometry":{"type":"Point","coordinates":[-114.569,41.1217,8250]},"properties":{"name":"Rocky Point","description":"Tower site located at Rocky Point, Nevada. Elevation: 8250 feet.","link":"sites/rocky-point.html","styleUrl":"#icon-1899-0288D1-nodesc","icon-scale":1,"icon-offset":[32,64],"icon-offset-units":["pixels","insetPixels"],"icon":"images/icon-1.png"}},
{"type":"Feature","geometry":{"type":"Point","coordinates":[-83.2894,41.6029,583]},"properties":{"name":"Martin","description":"Tower site located in Martin, Ohio. Elevation: 583 feet.","link":"sites/martin.html","styleUrl":"#icon-1899-0288D1-nodesc","icon-scale":1,"icon-offset":[32,64],"icon-offset-units":["pixels","insetPixels"],"icon":"images/icon-1.png"}},
{"type":"Feature","geometry":{"type":"Point","coordinates":[-84.1527,41.5372,772]},"properties":{"name":"Wauseon","description":"Tower site located in Wauseon, Ohio. Elevation: 772 feet.","link":"sites/wauseon.html","styleUrl":"#icon-1899-0288D1-nodesc","icon-scale":1,"icon-offset":[32,64],"icon-offset-units":["pixels","insetPixels"],"icon":"images/icon-1.png"}},
{"type":"Feature","geometry":{"type":"Point","coordinates":[-88.6434,43.9502,906]},"properties":{"name":"Fisk","description":"Tower site located in Fisk, Wisconsin. Elevation: 906 feet.","link":"sites/fisk.html","styleUrl":"#icon-1899-0288D1-nodesc","icon-scale":1,"icon-offset":[32,64],"icon-offset-units":["pixels","insetPixels"],"icon":"images/icon-1.png"}},
{"type":"Feature","geometry":{"type":"Point","coordinates":[-88.1598,43.738,1122]},"properties":{"name":"Graham Corners","description":"Tower site located in Graham Corners, Wisconsin. Elevation: 1122 feet.","link":"sites/graham-corners.html","styleUrl":"#icon-1899-0288D1-nodesc","icon-scale":1,"icon-offset":[32,64],"icon-offset-units":["pixels","insetPixels"],"icon":"images/icon-1.png"}},
{"type":"Feature","geometry":{"type":"Point","coordinates":[-87.9463,44.3437,955]},"properties":{"name":"Lark","description":"Tower site located in Lark, Wisconsin. Elevation: 955 feet.","link":"sites/lark.html","styleUrl":"#icon-1899-0288D1-nodesc","icon-scale":1,"icon-offset":[32,64],"icon-offset-units":["pixels","insetPixels"],"icon":"images/icon-1.png"}},
{"type":"Feature","geometry":{"type":"Point","coordinates":[-90.2101,45.1447,1533]},"properties":{"name":"Medford","description":"Tower site located in Medford, Wisconsin. Elevation: 1533 feet.","link":"sites/medford.html","styleUrl":"#icon-1899-0288D1-nodesc","icon-scale":1,"icon-offset":[32,64],"icon-offset-units":["pixels","insetPixels"],"icon":"images/icon-1.png"}},
{"type":"Feature","geometry":{"type":"Point","coordinates":[-88.1609,44.8572,760]},"properties":{"name":"Oconto Falls","description":"Tower site located in Oconto Falls, Wisconsin. Elevation: 760 feet.","link":"sites/oconto-falls.html","styleUrl":"#icon-1899-0288D1-nodesc","icon-scale":1,"icon-offset":[32,64],"icon-offset-units":["pixels","insetPixels"],"icon":"images/icon-1.png"}},
{"type":"Feature","geometry":{"type":"Point","coordinates":[-87.7676,41.4131,825]},"properties":{"name":"Monee","description":"Tower site located in Monee, Illinois. Elevation: 825 feet.","link":"sites/monee.html","styleUrl":"#icon-1899-0288D1-nodesc","icon-scale":1,"icon-offset":[32,64],"icon-offset-units":["pixels","insetPixels"],"icon":"images/icon-1.png"}},
{"type":"Feature","geometry":{"type":"Point","coordinates":[-90.8068,45.0747,1307]},"properties":{"name":"Bellinger","description":"Tower site located in Bellinger, Wisconsin. Elevation: 1307 feet.","link":"sites/bellinger.html","styleUrl":"#icon-1899-0288D1-nodesc","icon-scale":1,"icon-offset":[32,64],"icon-offset-units":["pixels","insetPixels"],"icon":"images/icon-1.png"}},
{"type":"Feature","geometry":{"type":"Point","coordinates":[-89.4769,43.0524,1060]},"properties":{"name":"Madison","description":"Tower site located in Madison, Wisconsin. Elevation: 1060 feet.","link":"sites/madison.html","styleUrl":"#icon-1899-0288D1-nodesc","icon-scale":1,"icon-offset":[32,64],"icon-offset-units":["pixels","insetPixels"],"icon":"images/icon-1.png"}},
{"type":"Feature","geometry":{"type":"Point","coordinates":[-88.1196,43.1183,873]},"properties":{"name":"Menomonee Falls","description":"Tower site located in Menomonee Falls, Wisconsin. Elevation: 873 feet.","link":"sites/menomonee-falls.html","styleUrl":"#icon-1899-0288D1-nodesc","icon-scale":1,"icon-offset":[32,64],"icon-offset-units":["pixels","insetPixels"],"icon":"images/icon-1.png"}},
{"type":"Feature","geometry":{"type":"Point","coordinates":[-89.6799,44.9201,1735]},"properties":{"name":"Rib Hill","description":"Tower site located at Rib Hill, Wisconsin. Elevation: 1735 feet.","link":"sites/rib-hill.html","styleUrl":"#icon-1899-0288D1-nodesc","icon-scale":1,"icon-offset":[32,64],"icon-offset-units":["pixels","insetPixels"],"icon":"images/icon-1.png"}},
{"type":"Feature","geometry":{"type":"Point","coordinates":[-90.6735,41.5009,750]},"properties":{"name":"Davenport","description":"Tower site located in Davenport, Iowa. Elevation: 750 feet.","link":"sites/davenport.html","styleUrl":"#icon-1899-0288D1-nodesc","icon-scale":1,"icon-offset":[32,64],"icon-offset-units":["pixels","insetPixels"],"icon":"images/icon-1.png"}},
{"type":"Feature","geometry":{"type":"Point","coordinates":[-88.4221,43.0474,1004]},"properties":{"name":"Delafield","description":"Tower site located in Delafield, Wisconsin. Elevation: 1004 feet.","link":"sites/delafield.html","styleUrl":"#icon-1899-0288D1-nodesc","icon-scale":1,"icon-offset":[32,64],"icon-offset-units":["pixels","insetPixels"],"icon":"images/icon-1.png"}},
{"type":"Feature","geometry":{"type":"Point","coordinates":[-88.5296,42.6627,980]},"properties":{"name":"Elkhorn","description":"Tower site located in Elkhorn, Wisconsin. Elevation: 980 feet.","link":"sites/elkhorn.html","styleUrl":"#icon-1899-0288D1-nodesc","icon-scale":1,"icon-offset":[32,64],"icon-offset-units":["pixels","insetPixels"],"icon":"images/icon-1.png"}},
{"type":"Feature","geometry":{"type":"Point","coordinates":[-88.8255,43.5941,1016]},"properties":{"name":"Fox Lake","description":"Tower site located in Fox Lake, Wisconsin. Elevation: 1016 feet.","link":"sites/fox-lake.html","styleUrl":"#icon-1899-0288D1-nodesc","icon-scale":1,"icon-offset":[32,64],"icon-offset-units":["pixels","insetPixels"],"icon":"images/icon-1.png"}},
{"type":"Feature","geometry":{"type":"Point","coordinates":[-87.9817,43.0677,752]},"properties":{"name":"Center St.","description":"Tower site located on Center Street, Wisconsin. Elevation: 752 feet.","link":"sites/center-st.html","styleUrl":"#icon-1899-0288D1-nodesc","icon-scale":1,"icon-offset":[32,64],"icon-offset-units":["pixels","insetPixels"],"icon":"images/icon-1.png"}},
{"type":"Feature","geometry":{"type":"Point","coordinates":[-87.8476,42.6696,680]},"properties":{"name":"Racine / Mt. Pleasant","description":"Tower site located in Racine / Mt. Pleasant, Wisconsin. Elevation: 680 feet.","link":"sites/racine-mt-pleasant.html","styleUrl":"#icon-1899-0288D1-nodesc","icon-scale":1,"icon-offset":[32,64],"icon-offset-units":["pixels","insetPixels"],"icon":"images/icon-1.png"}},
{"type":"Feature","geometry":{"type":"Point","coordinates":[-87.8789,42.9765,661]},"properties":{"name":"St. Francis","description":"Tower site located in St. Francis, Wisconsin. Elevation: 661 feet.","link":"sites/st-francis.html","styleUrl":"#icon-1899-0288D1-nodesc","icon-scale":1,"icon-offset":[32,64],"icon-offset-units":["pixels","insetPixels"],"icon":"images/icon-1.png"}},
{"type":"Feature","geometry":{"type":"Point","coordinates":[-88.164,42.9413,1036]},"properties":{"name":"New Berlin","description":"Tower site located in New Berlin, Wisconsin. Elevation: 1036 feet.","link":"sites/new-berlin.html","styleUrl":"#icon-1899-0288D1-nodesc","icon-scale":1,"icon-offset":[32,64],"icon-offset-units":["pixels","insetPixels"],"icon":"images/icon-1.png"}}
]}
